STARLINK-35842          
1 67087U 25298N   26007.85449456  .00051835  00000+0  11781-2 0  9995
2 67087  70.0003 177.1234 0003993 271.5803  88.4921 15.42734534  3873
STARLINK-35882          
1 67088U 25298P   26007.84845372  .00059740  00000+0  96556-3 0  9999
2 67088  70.0003 176.6891 0003681 273.1978  86.8788 15.52544469  3883
STARLINK-35763          
1 67089U 25298Q   26007.83335648  .00069300  00000+0  15731-2 0  9997
2 67089  70.0004 176.8112 0003335 276.9906 286.7295 15.42684614  5164
STARLINK-36060          
1 67090U 25298R   26007.83335648 -.02033809  00000+0 -41352-1 0  9995
2 67090  70.0001 176.7279 0003330 271.7500   4.0526 15.49427160  5104
STARLINK-36097          
1 67091U 25298S   26007.83335648 -.02009696  00000+0 -45445-1 0  9990
2 67091  70.0006 176.7371 0003056 273.8348 352.6137 15.46355246  5169
STARLINK-35792          
1 67092U 25298T   26007.83335648  .00081197  00000+0  18440-2 0  9999
2 67092  70.0004 176.7592 0003916 280.1020 329.6942 15.42613288  5107
STARLINK-35784          
1 67093U 25298U   26007.83335648  .00074561  00000+0  16914-2 0  9991
2 67093  70.0005 176.8618 0003406 279.2998 239.4261 15.42680788  5163
STARLINK-36202          
1 67094U 25298V   26007.83335648  .00064543  00000+0  14673-2 0  9991
2 67094  70.0006 176.8363 0003475 275.6884 266.0742 15.42663249  5165
STARLINK-36227          
1 67095U 25298W   26007.84625162 -.00359769  00000+0 -63540-2 0  9992
2 67095  70.0004 176.6792 0003216 286.3310  73.7523 15.51444286  3889
STARLINK-36228          
1 67096U 25298X   26007.83335648 -.00013269  00000+0 -21326-3 0  9998
2 67096  70.0005 176.7114 0003288 276.3465  14.7151 15.52525782  5111
STARLINK-36222          
1 67097U 25298Y   26007.71650662  .00053434  00000+0  86430-3 0  9995
2 67097  70.0004 177.0289 0002876 280.3230  79.7633 15.52557160  3866
STARLINK-36205          
1 67098U 25298Z   26007.83335648  .00073911  00000+0  16766-2 0  9999
2 67098  70.0006 176.8870 0003526 275.2101 221.5219 15.42683219  5161
