CCSDS_OMM_VERS = 2.0
CREATION_DATE  = 
ORIGINATOR     = 

OBJECT_NAME    = STARLINK-35842
OBJECT_ID      = 2025-298N
CENTER_NAME    = EARTH
REF_FRAME      = TEME
TIME_SYSTEM    = UTC
MEAN_ELEMENT_THEORY = SGP/SGP4

EPOCH          = 2026-01-07T20:30:28.329984
MEAN_MOTION    = 15.42734534
ECCENTRICITY   = .0003993
INCLINATION    = 70.0003
RA_OF_ASC_NODE = 177.1234
ARG_OF_PERICENTER = 271.5803
MEAN_ANOMALY   = 88.4921

EPHEMERIS_TYPE = 0
CLASSIFICATION_TYPE = U
NORAD_CAT_ID   = 67087
ELEMENT_SET_NO = 999
REV_AT_EPOCH   = 387
BSTAR          = .11781E-2
MEAN_MOTION_DOT = .51835E-3
MEAN_MOTION_DDOT = 0

CCSDS_OMM_VERS = 2.0
CREATION_DATE  = 
ORIGINATOR     = 

OBJECT_NAME    = STARLINK-35882
OBJECT_ID      = 2025-298P
CENTER_NAME    = EARTH
REF_FRAME      = TEME
TIME_SYSTEM    = UTC
MEAN_ELEMENT_THEORY = SGP/SGP4

EPOCH          = 2026-01-07T20:21:46.401408
MEAN_MOTION    = 15.52544469
ECCENTRICITY   = .0003681
INCLINATION    = 70.0003
RA_OF_ASC_NODE = 176.6891
ARG_OF_PERICENTER = 273.1978
MEAN_ANOMALY   = 86.8788

EPHEMERIS_TYPE = 0
CLASSIFICATION_TYPE = U
NORAD_CAT_ID   = 67088
ELEMENT_SET_NO = 999
REV_AT_EPOCH   = 388
BSTAR          = .96556E-3
MEAN_MOTION_DOT = .5974E-3
MEAN_MOTION_DDOT = 0

CCSDS_OMM_VERS = 2.0
CREATION_DATE  = 
ORIGINATOR     = 

OBJECT_NAME    = STARLINK-35763
OBJECT_ID      = 2025-298Q
CENTER_NAME    = EARTH
REF_FRAME      = TEME
TIME_SYSTEM    = UTC
MEAN_ELEMENT_THEORY = SGP/SGP4

EPOCH          = 2026-01-07T20:00:01.999872
MEAN_MOTION    = 15.42684614
ECCENTRICITY   = .0003335
INCLINATION    = 70.0004
RA_OF_ASC_NODE = 176.8112
ARG_OF_PERICENTER = 276.9906
MEAN_ANOMALY   = 286.7295

EPHEMERIS_TYPE = 0
CLASSIFICATION_TYPE = U
NORAD_CAT_ID   = 67089
ELEMENT_SET_NO = 999
REV_AT_EPOCH   = 516
BSTAR          = .15731E-2
MEAN_MOTION_DOT = .693E-3
MEAN_MOTION_DDOT = 0

CCSDS_OMM_VERS = 2.0
CREATION_DATE  = 
ORIGINATOR     = 

OBJECT_NAME    = STARLINK-36060
OBJECT_ID      = 2025-298R
CENTER_NAME    = EARTH
REF_FRAME      = TEME
TIME_SYSTEM    = UTC
MEAN_ELEMENT_THEORY = SGP/SGP4

EPOCH          = 2026-01-07T20:00:01.999872
MEAN_MOTION    = 15.49427160
ECCENTRICITY   = .000333
INCLINATION    = 70.0001
RA_OF_ASC_NODE = 176.7279
ARG_OF_PERICENTER = 271.7500
MEAN_ANOMALY   = 4.0526

EPHEMERIS_TYPE = 0
CLASSIFICATION_TYPE = U
NORAD_CAT_ID   = 67090
ELEMENT_SET_NO = 999
REV_AT_EPOCH   = 510
BSTAR          = -.41352E-1
MEAN_MOTION_DOT = -.2033809E-1
MEAN_MOTION_DDOT = 0

CCSDS_OMM_VERS = 2.0
CREATION_DATE  = 
ORIGINATOR     = 

OBJECT_NAME    = STARLINK-36097
OBJECT_ID      = 2025-298S
CENTER_NAME    = EARTH
REF_FRAME      = TEME
TIME_SYSTEM    = UTC
MEAN_ELEMENT_THEORY = SGP/SGP4

EPOCH          = 2026-01-07T20:00:01.999872
MEAN_MOTION    = 15.46355246
ECCENTRICITY   = .0003056
INCLINATION    = 70.0006
RA_OF_ASC_NODE = 176.7371
ARG_OF_PERICENTER = 273.8348
MEAN_ANOMALY   = 352.6137

EPHEMERIS_TYPE = 0
CLASSIFICATION_TYPE = U
NORAD_CAT_ID   = 67091
ELEMENT_SET_NO = 999
REV_AT_EPOCH   = 516
BSTAR          = -.45445E-1
MEAN_MOTION_DOT = -.2009696E-1
MEAN_MOTION_DDOT = 0

CCSDS_OMM_VERS = 2.0
CREATION_DATE  = 
ORIGINATOR     = 

OBJECT_NAME    = STARLINK-35792
OBJECT_ID      = 2025-298T
CENTER_NAME    = EARTH
REF_FRAME      = TEME
TIME_SYSTEM    = UTC
MEAN_ELEMENT_THEORY = SGP/SGP4

EPOCH          = 2026-01-07T20:00:01.999872
MEAN_MOTION    = 15.42613288
ECCENTRICITY   = .0003916
INCLINATION    = 70.0004
RA_OF_ASC_NODE = 176.7592
ARG_OF_PERICENTER = 280.1020
MEAN_ANOMALY   = 329.6942

EPHEMERIS_TYPE = 0
CLASSIFICATION_TYPE = U
NORAD_CAT_ID   = 67092
ELEMENT_SET_NO = 999
REV_AT_EPOCH   = 510
BSTAR          = .1844E-2
MEAN_MOTION_DOT = .81197E-3
MEAN_MOTION_DDOT = 0

CCSDS_OMM_VERS = 2.0
CREATION_DATE  = 
ORIGINATOR     = 

OBJECT_NAME    = STARLINK-35784
OBJECT_ID      = 2025-298U
CENTER_NAME    = EARTH
REF_FRAME      = TEME
TIME_SYSTEM    = UTC
MEAN_ELEMENT_THEORY = SGP/SGP4

EPOCH          = 2026-01-07T20:00:01.999872
MEAN_MOTION    = 15.42680788
ECCENTRICITY   = .0003406
INCLINATION    = 70.0005
RA_OF_ASC_NODE = 176.8618
ARG_OF_PERICENTER = 279.2998
MEAN_ANOMALY   = 239.4261

EPHEMERIS_TYPE = 0
CLASSIFICATION_TYPE = U
NORAD_CAT_ID   = 67093
ELEMENT_SET_NO = 999
REV_AT_EPOCH   = 516
BSTAR          = .16914E-2
MEAN_MOTION_DOT = .74561E-3
MEAN_MOTION_DDOT = 0

CCSDS_OMM_VERS = 2.0
CREATION_DATE  = 
ORIGINATOR     = 

OBJECT_NAME    = STARLINK-36202
OBJECT_ID      = 2025-298V
CENTER_NAME    = EARTH
REF_FRAME      = TEME
TIME_SYSTEM    = UTC
MEAN_ELEMENT_THEORY = SGP/SGP4

EPOCH          = 2026-01-07T20:00:01.999872
MEAN_MOTION    = 15.42663249
ECCENTRICITY   = .0003475
INCLINATION    = 70.0006
RA_OF_ASC_NODE = 176.8363
ARG_OF_PERICENTER = 275.6884
MEAN_ANOMALY   = 266.0742

EPHEMERIS_TYPE = 0
CLASSIFICATION_TYPE = U
NORAD_CAT_ID   = 67094
ELEMENT_SET_NO = 999
REV_AT_EPOCH   = 516
BSTAR          = .14673E-2
MEAN_MOTION_DOT = .64543E-3
MEAN_MOTION_DDOT = 0

CCSDS_OMM_VERS = 2.0
CREATION_DATE  = 
ORIGINATOR     = 

OBJECT_NAME    = STARLINK-36227
OBJECT_ID      = 2025-298W
CENTER_NAME    = EARTH
REF_FRAME      = TEME
TIME_SYSTEM    = UTC
MEAN_ELEMENT_THEORY = SGP/SGP4

EPOCH          = 2026-01-07T20:18:36.139968
MEAN_MOTION    = 15.51444286
ECCENTRICITY   = .0003216
INCLINATION    = 70.0004
RA_OF_ASC_NODE = 176.6792
ARG_OF_PERICENTER = 286.3310
MEAN_ANOMALY   = 73.7523

EPHEMERIS_TYPE = 0
CLASSIFICATION_TYPE = U
NORAD_CAT_ID   = 67095
ELEMENT_SET_NO = 999
REV_AT_EPOCH   = 388
BSTAR          = -.6354E-2
MEAN_MOTION_DOT = -.359769E-2
MEAN_MOTION_DDOT = 0

CCSDS_OMM_VERS = 2.0
CREATION_DATE  = 
ORIGINATOR     = 

OBJECT_NAME    = STARLINK-36228
OBJECT_ID      = 2025-298X
CENTER_NAME    = EARTH
REF_FRAME      = TEME
TIME_SYSTEM    = UTC
MEAN_ELEMENT_THEORY = SGP/SGP4

EPOCH          = 2026-01-07T20:00:01.999872
MEAN_MOTION    = 15.52525782
ECCENTRICITY   = .0003288
INCLINATION    = 70.0005
RA_OF_ASC_NODE = 176.7114
ARG_OF_PERICENTER = 276.3465
MEAN_ANOMALY   = 14.7151

EPHEMERIS_TYPE = 0
CLASSIFICATION_TYPE = U
NORAD_CAT_ID   = 67096
ELEMENT_SET_NO = 999
REV_AT_EPOCH   = 511
BSTAR          = -.21326E-3
MEAN_MOTION_DOT = -.13269E-3
MEAN_MOTION_DDOT = 0

CCSDS_OMM_VERS = 2.0
CREATION_DATE  = 
ORIGINATOR     = 

OBJECT_NAME    = STARLINK-36222
OBJECT_ID      = 2025-298Y
CENTER_NAME    = EARTH
REF_FRAME      = TEME
TIME_SYSTEM    = UTC
MEAN_ELEMENT_THEORY = SGP/SGP4

EPOCH          = 2026-01-07T17:11:46.171968
MEAN_MOTION    = 15.52557160
ECCENTRICITY   = .0002876
INCLINATION    = 70.0004
RA_OF_ASC_NODE = 177.0289
ARG_OF_PERICENTER = 280.3230
MEAN_ANOMALY   = 79.7633

EPHEMERIS_TYPE = 0
CLASSIFICATION_TYPE = U
NORAD_CAT_ID   = 67097
ELEMENT_SET_NO = 999
REV_AT_EPOCH   = 386
BSTAR          = .8643E-3
MEAN_MOTION_DOT = .53434E-3
MEAN_MOTION_DDOT = 0

CCSDS_OMM_VERS = 2.0
CREATION_DATE  = 
ORIGINATOR     = 

OBJECT_NAME    = STARLINK-36205
OBJECT_ID      = 2025-298Z
CENTER_NAME    = EARTH
REF_FRAME      = TEME
TIME_SYSTEM    = UTC
MEAN_ELEMENT_THEORY = SGP/SGP4

EPOCH          = 2026-01-07T20:00:01.999872
MEAN_MOTION    = 15.42683219
ECCENTRICITY   = .0003526
INCLINATION    = 70.0006
RA_OF_ASC_NODE = 176.8870
ARG_OF_PERICENTER = 275.2101
MEAN_ANOMALY   = 221.5219

EPHEMERIS_TYPE = 0
CLASSIFICATION_TYPE = U
NORAD_CAT_ID   = 67098
ELEMENT_SET_NO = 999
REV_AT_EPOCH   = 516
BSTAR          = .16766E-2
MEAN_MOTION_DOT = .73911E-3
MEAN_MOTION_DDOT = 0

